KOREASAT 6              
1 37265U 10070B   24325.56474689 -.00000361  00000+0  00000+0 0  9995
2 37265   0.0351  56.6608 0002704 278.8128  43.9211  1.00270836 51018
BEIDOU-2 IGSO-3         
1 37384U 11013A   24324.67296549 -.00000201  00000+0  00000+0 0  9996
2 37384  61.5830  45.6175 0031660 180.5116 182.9444  1.00269643 49901
INTELSAT 28 (IS-28)     
1 37392U 11016A   24324.35327236  .00000158  00000+0  00000+0 0  9991
2 37392   0.3144  90.5575 0003402 158.7264 329.6009  1.00273809 47528
YAHSAT 1A               
1 37393U 11016B   24324.94829104  .00000102  00000+0  00000+0 0  9997
2 37393   0.0127 320.5789 0003277 321.1602 171.6025  1.00269613 36655
SBIRS GEO-1 (USA 230)   
1 37481U 11019A   24325.09393299 -.00000003  00000+0  00000+0 0  9997
2 37481   3.3054  50.6115 0002187 191.5113 277.0152  1.00272023 49641
TELSTAR 14R             
1 37602U 11021A   24325.36775709 -.00000278  00000+0  00000+0 0  9999
2 37602   0.0523 101.5100 0001546 192.3381 195.4178  1.00270291 50081
GSAT-8                  
1 37605U 11022A   24325.09176097  .00000086  00000+0  00000+0 0  9994
2 37605   0.6418  89.1163 0008686 167.9393 250.6864  1.00271460 47469
ST-2                    
1 37606U 11022B   24325.54172714 -.00000211  00000+0  00000+0 0  9998
2 37606   0.0117 308.0527 0002193 334.3284  60.7269  1.00272057 49524
ZHONGXING-10            
1 37677U 11026A   24325.55958377 -.00000351  00000+0  00000+0 0  9993
2 37677   0.0473 269.0361 0004434 300.4271 162.5790  1.00272651 49248
SES-3                   
1 37748U 11035A   24324.55976017 -.00000100  00000+0  00000+0 0  9994
2 37748   0.0246  12.6402 0003299 243.5133 261.4527  1.00271381 48835
KAZSAT-2                
1 37749U 11035B   24324.81214931 -.00000197  00000+0  00000+0 0  9990
2 37749   0.0171 296.7342 0001569 347.5473 153.9293  1.00271760 47623
BEIDOU-2 IGSO-4         
1 37763U 11038A   24325.54792069 -.00000015  00000+0  00000+0 0  9992
2 37763  54.5617 170.7958 0129657 228.5753 314.2752  1.00275323 48891
ASTRA 1N                
1 37775U 11041A   24324.53451992  .00000121  00000+0  00000+0 0  9991
2 37775   0.0785  44.0998 0001322 223.3456   3.2714  1.00269937 38766
BSAT-3C (JCSAT-110R)    
1 37776U 11041B   24325.50970053 -.00000350  00000+0  00000+0 0  9999
2 37776   0.0304  57.8220 0000421 275.4015  20.2638  1.00271397 44722
PAKSAT-1R               
1 37779U 11042A   24325.23137792  .00000155  00000+0  00000+0 0  9990
2 37779   0.0653  97.1435 0001619 214.4848 229.4791  1.00276798 48721
SES-2                   
1 37809U 11049A   24324.99207880 -.00000194  00000+0  00000+0 0  9993
2 37809   0.0148 326.8193 0002854 281.1177  81.7195  1.00270036 48204
ARABSAT-5C              
1 37810U 11049B   24325.24910571  .00000125  00000+0  00000+0 0  9995
2 37810   0.0529  10.2309 0006025 212.7667 306.4489  1.00272444 48286
EUTELSAT 7 WEST A       
1 37816U 11051A   24325.32995729 -.00000059  00000+0  00000+0 0  9998
2 37816   0.0648   4.3982 0007036 218.2048 308.7331  1.00271820 48145
QUETZSAT 1              
1 37826U 11054A   24325.28003097 -.00000240  00000+0  00000+0 0  9997
2 37826   0.0140 343.2957 0002774 281.5259 178.7895  1.00270182 44136
INTELSAT 18 (IS-18)     
1 37834U 11056A   24325.24166830  .00000055  00000+0  00000+0 0  9992
2 37834   0.0146 296.1977 0002215 304.3520  86.2287  1.00274071 48058
EUTELSAT 16A            
1 37836U 11057A   24325.33452046  .00000105  00000+0  00000+0 0  9998
2 37836   0.0695   3.9612 0005825 243.9832 308.3282  1.00271646  1577
VIASAT-1                
1 37843U 11059A   24325.25612157 -.00000022  00000+0  00000+0 0  9999
2 37843   0.0173 297.9650 0002169 300.7563 158.1411  1.00270910 41565
ASIASAT 7               
1 37933U 11069A   24325.55607968 -.00000333  00000+0  00000+0 0  9992
2 37933   0.0395 135.2663 0001717  92.0580 138.4171  1.00274583 39108
BEIDOU-2 IGSO-5         
1 37948U 11073A   24323.60382925 -.00000196  00000+0  00000+0 0  9997
2 37948  48.7324 278.6285 0101309 221.9974 228.9605  1.00257491 47368
LUCH-5A                 
1 37951U 11074B   24325.56803042 -.00000046  00000+0  00000+0 0  9991
2 37951   7.2870  82.4940 0005007 152.5312 196.6223  1.00268345 47299
NIGCOMSAT 1R            
1 38014U 11077A   24325.23105135  .00000146  00000+0  00000+0 0  9997
2 38014   0.0462 108.7440 0004493 182.8440 253.8511  1.00274311 47208
FENGYUN 2F              
1 38049U 12002A   24325.57456719 -.00000252  00000+0  00000+0 0  9997
2 38049   6.1308  72.4261 0002768 162.0858 157.7149  0.99138910 47116
WGS F4 (USA 233)        
1 38070U 12003A   24325.09845078 -.00000214  00000+0  00000+0 0  9997
2 38070   0.0131  21.7473 0000916 231.1575 290.5489  1.00270283 38392
SES-4                   
1 38087U 12007A   24324.34841196 -.00000166  00000+0  00000+0 0  9999
2 38087   0.0275  35.8283 0002344 199.4233 287.0702  1.00271601 46469
BEIDOU-2 G5             
1 38091U 12008A   24325.09254292  .00000058  00000+0  00000+0 0  9992
2 38091   2.1442  70.8864 0011285 221.7303 219.1395  1.00266758 46616
MUOS-1                  
1 38093U 12009A   24325.45596243 -.00000126  00000+0  00000+0 0  9997
2 38093   4.3341  45.8695 0049910 358.8791  79.4461  1.00271159 46693
INTELSAT 22 (IS-22)     
1 38098U 12011A   24325.20049228 -.00000058  00000+0  00000+0 0  9998
2 38098   0.0043  20.2820 0001954 225.9260 317.8149  1.00271386  1435
APSTAR-7                
1 38107U 12013A   24325.07688414 -.00000101  00000+0  00000+0 0  9991
2 38107   0.0203  56.9058 0002923 197.0232 269.8460  1.00271783 46058
YAHSAT 1B               
1 38245U 12016A   24324.58382604  .00000128  00000+0  00000+0 0  9992
2 38245   0.0812  94.2081 0002644 173.8504  48.8270  1.00269454 39836
AEHF-2 (USA 235)        
1 38254U 12019A   24325.07759946 -.00000133  00000+0  00000+0 0  9994
2 38254   5.3190  61.0168 0002683 168.7168 201.3337  1.00270543  1237
JCSAT-13                
1 38331U 12023A   24325.57097082 -.00000355  00000+0  00000+0 0  9992
2 38331   0.0178  49.6187 0002577 195.2589 144.7563  1.00269743 45787
VINASAT-2               
1 38332U 12023B   24324.96410330 -.00000328  00000+0  00000+0 0  9990
2 38332   0.0343  45.7720 0002611 197.6656 294.9719  1.00270967 40902
NIMIQ 6                 
1 38342U 12026A   24324.49103769 -.00000172  00000+0  00000+0 0  9994
2 38342   0.0256  49.2062 0003001 185.9084 269.5778  1.00270606 44652
ZHONGXING-2A            
1 38352U 12028A   24325.54938049 -.00000291  00000+0  00000+0 0  9993
2 38352   0.0115 358.2500 0002270 258.6064  99.2220  1.00268921 45546
INTELSAT 19 (IS-19)     
1 38356U 12030A   24325.38890823 -.00000055  00000+0  00000+0 0  9997
2 38356   0.0095 324.8111 0003513 282.9317 118.1795  1.00272580 44684
ECHOSTAR 17             
1 38551U 12035A   24325.45600196 -.00000073  00000+0  00000+0 0  9999
2 38551   0.0112 311.6357 0001940 285.4189 239.9597  1.00270242 45310
METEOSAT-10 (MSG-3)     
1 38552U 12035B   24325.29532194 -.00000003  00000+0  00000+0 0  9997
2 38552   3.3227  61.7540 0001663 228.2952 236.2107  1.00275723 45109
SES-5                   
1 38652U 12036A   24324.58156719  .00000036  00000+0  00000+0 0  9990
2 38652   0.0586 299.4219 0002329 302.8748  31.1613  1.00271858 38726
INTELSAT 20 (IS-20)     
1 38740U 12043A   24325.12341330 -.00000023  00000+0  00000+0 0  9999
2 38740   0.0061 305.1286 0002666 239.5000 347.9485  1.00271048 44994
HYLAS 2                 
1 38741U 12043B   24325.25205546 -.00000261  00000+0  00000+0 0  9996
2 38741   0.9409  88.1518 0004253 180.4816  24.3482  1.00269346 45014
INTELSAT 21 (IS-21)     
1 38749U 12045A   24324.48521725 -.00000283  00000+0  00000+0 0  9994
2 38749   0.0132 295.6516 0002734 305.4140 294.6275  1.00271361 44763
ASTRA 2F                
1 38778U 12051A   24325.30088230  .00000151  00000+0  00000+0 0  9997
2 38778   0.0475 254.0546 0004861 340.4709 321.8273  1.00270106 35385
GSAT-10                 
1 38779U 12051B   24325.07688414 -.00000164  00000+0  00000+0 0  9997
2 38779   0.0410 268.1459 0002832 220.4812  41.6710  1.00272593 44354
INTELSAT 23 (IS-23)     
1 38867U 12057A   24325.28472253 -.00000283  00000+0  00000+0 0  9998
2 38867   0.0262 242.8709 0001704 143.9501  82.4970  1.00269528 44192
BEIDOU-2 G6             
1 38953U 12059A   24325.09758198 -.00000174  00000+0  00000+0 0  9999
2 38953   2.9581  79.2188 0006888 289.7056 169.7966  1.00274342 44158
LUCH-5B                 
1 38977U 12061A   24325.26289157 -.00000136  00000+0  00000+0 0  9999
2 38977   9.2333  55.3130 0006668 171.6994 271.0622  1.00271378 43855
YAMAL 300K              
1 38978U 12061B   24325.57179646  .00000072  00000+0  00000+0 0  9993
2 38978   0.0122 305.0921 0001308 346.6953 157.0932  1.00270397 43889
STAR ONE C3             
1 38991U 12062A   24324.99451145 -.00000247  00000+0  00000+0 0  9996
2 38991   0.0141  24.5269 0002238 213.6373 104.3919  1.00270974 43998
EUTELSAT 21B            
1 38992U 12062B   24325.29957910  .00000131  00000+0  00000+0 0  9993
2 38992   0.0696   4.5282 0002854 239.8614 304.8672  1.00271529 44079
ECHOSTAR 16             
1 39008U 12065A   24325.06865076 -.00000280  00000+0  00000+0 0  9997
2 39008   0.0102 311.9439 0001935 288.8529 142.0044  1.00270651 43863
ZHONGXING-12            
1 39017U 12067A   24325.54172723 -.00000206  00000+0  00000+0 0  9990
2 39017   0.0341  97.0294 0003421 146.6131  98.9306  1.00272145 43759
EUTELSAT 70B            
1 39020U 12069A   24324.95150562 -.00000043  00000+0  00000+0 0  9996
2 39020   0.0648   4.0592 0004458 228.6209 239.8509  1.00272017 43759
YAMAL 402               
1 39022U 12070A   24325.22549441  .00000087  00000+0  00000+0 0  9996
2 39022   0.0170 282.1151 0005219 324.5289 309.1786  1.00271732 43640
SKYNET 5D               
1 39034U 12075A   24325.21160664  .00000100  00000+0  00000+0 0  9995
2 39034   0.0704 356.6585 0004103 242.6483 309.3463  1.00270872 43403
